IRIDIUM 116             
1 43072U 17083C   25201.46568453 -.00000015  00000+0 -12457-4 0  9996
2 43072  86.3955 100.7016 0001828  88.4278 271.7127 14.34217334396620
IRIDIUM 130             
1 43073U 17083D   25201.22466566  .00000000  00000+0 -72240-5 0  9993
2 43073  86.3965 101.0454 0001663  82.9368 277.2017 14.34217443396538
IRIDIUM 151             
1 43074U 17083E   25201.47836963  .00000010  00000+0 -34842-5 0  9990
2 43074  86.3958 100.7467 0001899  89.8638 270.2776 14.34217650396599
IRIDIUM 134             
1 43075U 17083F   25201.44665648  .00000015  00000+0 -15610-5 0  9995
2 43075  86.3960 100.7635 0001761  82.2241 277.9155 14.34217531396554
IRIDIUM 137             
1 43076U 17083G   25201.45934195 -.00000011  00000+0 -10901-4 0  9997
2 43076  86.3961 100.8441 0002030 102.6673 257.4750 14.34217457396627
IRIDIUM 141             
1 43077U 17083H   25201.45300034  .00000201  00000+0  64846-4 0  9993
2 43077  86.3958 100.6966 0002353  82.0225 278.1238 14.34218771396627
IRIDIUM 153             
1 43078U 17083J   25201.33541015  .00000000  00000+0 -71338-5 0  9990
2 43078  86.3931  69.2041 0002300  76.1798 283.9653 14.34217472397717
IRIDIUM 131             
1 43079U 17083K   25201.44031499  .00000023  00000+0  12157-5 0  9991
2 43079  86.3964 100.8658 0002349  86.0185 274.1279 14.34217691396553
